*******************************************************************************
 Revised: April 12, 2021       Solar System Barycenter                        0

 Dynamical point 
 ---------------
 The center of mass for the solar system. See object 10 for Sun ephemeris.
*******************************************************************************


*******************************************************************************
Ephemeris / WWW_USER Fri Oct 22 17:29:57 2021 Pasadena, USA      / Horizons    
*******************************************************************************
Target body name: Solar System Barycenter (0)     {source: DE441}
Center body name: Sun (10)                        {source: DE441}
Center-site name: BODYCENTRIC
*******************************************************************************
Start time      : A.D. 2017-Jan-01 00:09:00.0000 UT      
Stop  time      : A.D. 2017-Dec-31 23:49:00.0000 UT      
Step-size       : 40 minutes
*******************************************************************************
Target pole/equ : MARSIAU                         {East-longitude positive}
Target radii    : 696000.0 x 696000.0 x 696000.0 k{Equator, meridian, pole}    
Center geodetic : 0.00000000,0.00000000,0.0000000 {E-lon(deg),Lat(deg),Alt(km)}
Center cylindric: 0.00000000,0.00000000,0.0000000 {E-lon(deg),Dxy(km),Dz(km)}
Center pole/equ : IAU_SUN                         {East-longitude positive}
Center radii    : 696000.0 x 696000.0 x 696000.0 k{Equator, meridian, pole}    
Target primary  : Sun
Vis. interferer : None
Rel. light bend : Sun                             {source: DE441}
Rel. lght bnd GM: 1.3271E+11 km^3/s^2                                          
Atmos refraction: NO (AIRLESS)
RA format       : HMS
Time format     : CAL 
EOP file        : eop.211021.p220114                                           
EOP coverage    : DATA-BASED 1962-JAN-20 TO 2021-OCT-21. PREDICTS-> 2022-JAN-13
Units conversion: 1 au= 149597870.700 km, c= 299792.458 km/s, 1 day= 86400.0 s 
Table cut-offs 1: Elevation (-90.0deg=NO ),Airmass     n.a.    , Daylight (NO )
Table cut-offs 2: Solar elongation (  0.0,180.0=NO ),Local Hour Angle( 0.0=NO )
Table cut-offs 3: RA/DEC angular rate (     0.0=NO )                           
*******************************************************************************
 Date__(UT)__HR:MN     R.A._____(ICRF)_____DEC             delta      deldot
****************************************************************************
$$SOE
 2017-Mar-14 18:09     15 29 41.76 -17 19 10.5  0.00544207331521   0.0059041
 2017-Mar-14 18:49     15 29 42.23 -17 19 12.4  0.00544216803461   0.0059041
 2017-Mar-14 19:29     15 29 42.70 -17 19 14.2  0.00544226275342   0.0059040
 2017-Mar-14 20:09     15 29 43.16 -17 19 16.1  0.00544235747165   0.0059040
 2017-Mar-14 20:49     15 29 43.63 -17 19 17.9  0.00544245218928   0.0059040
 2017-Mar-14 21:29     15 29 44.10 -17 19 19.8  0.00544254690633   0.0059039
 2017-Mar-14 22:09     15 29 44.56 -17 19 21.6  0.00544264162278   0.0059039
 2017-Mar-14 22:49     15 29 45.03 -17 19 23.5  0.00544273633864   0.0059039
 2017-Mar-14 23:29     15 29 45.50 -17 19 25.4  0.00544283105391   0.0059038
 2017-Mar-15 00:09     15 29 45.96 -17 19 27.2  0.00544292576859   0.0059038
 2017-Mar-15 00:49     15 29 46.43 -17 19 29.1  0.00544302048268   0.0059037
 2017-Mar-15 01:29     15 29 46.90 -17 19 30.9  0.00544311519618   0.0059037
 2017-Mar-15 02:09     15 29 47.36 -17 19 32.8  0.00544320990908   0.0059037
 2017-Mar-15 02:49     15 29 47.83 -17 19 34.6  0.00544330462140   0.0059036
 2017-Mar-15 03:29     15 29 48.30 -17 19 36.5  0.00544339933312   0.0059036
 2017-Mar-15 04:09     15 29 48.76 -17 19 38.3  0.00544349404424   0.0059036
 2017-Mar-15 04:49     15 29 49.23 -17 19 40.2  0.00544358875477   0.0059035
 2017-Mar-15 05:29     15 29 49.70 -17 19 42.0  0.00544368346471   0.0059035
 2017-Mar-15 06:09     15 29 50.16 -17 19 43.9  0.00544377817406   0.0059034
 2017-Mar-15 06:49     15 29 50.63 -17 19 45.7  0.00544387288281   0.0059034
 2017-Mar-15 07:29     15 29 51.10 -17 19 47.6  0.00544396759096   0.0059034
 2017-Mar-15 08:09     15 29 51.57 -17 19 49.4  0.00544406229852   0.0059033
 2017-Mar-15 08:49     15 29 52.03 -17 19 51.3  0.00544415700549   0.0059033
 2017-Mar-15 09:29     15 29 52.50 -17 19 53.1  0.00544425171186   0.0059033
 2017-Mar-15 10:09     15 29 52.97 -17 19 55.0  0.00544434641763   0.0059032
 2017-Mar-15 10:49     15 29 53.43 -17 19 56.8  0.00544444112281   0.0059032
 2017-Mar-15 11:29     15 29 53.90 -17 19 58.7  0.00544453582739   0.0059031
 2017-Mar-15 12:09     15 29 54.37 -17 20 00.6  0.00544463053138   0.0059031
 2017-Mar-15 12:49     15 29 54.83 -17 20 02.4  0.00544472523476   0.0059031
 2017-Mar-15 13:29     15 29 55.30 -17 20 04.3  0.00544481993755   0.0059030
 2017-Mar-15 14:09     15 29 55.77 -17 20 06.1  0.00544491463975   0.0059030
 2017-Mar-15 14:49     15 29 56.23 -17 20 08.0  0.00544500934134   0.0059030
 2017-Mar-15 15:29     15 29 56.70 -17 20 09.8  0.00544510404234   0.0059029
 2017-Mar-15 16:09     15 29 57.17 -17 20 11.7  0.00544519874273   0.0059029
 2017-Mar-15 16:49     15 29 57.63 -17 20 13.5  0.00544529344253   0.0059029
 2017-Mar-15 17:29     15 29 58.10 -17 20 15.4  0.00544538814173   0.0059028
 2017-Mar-15 18:09     15 29 58.57 -17 20 17.2  0.00544548284033   0.0059028
 2017-Mar-15 18:49     15 29 59.03 -17 20 19.1  0.00544557753833   0.0059027
 2017-Mar-15 19:29     15 29 59.50 -17 20 20.9  0.00544567223573   0.0059027
 2017-Mar-15 20:09     15 29 59.97 -17 20 22.8  0.00544576693253   0.0059027
 2017-Mar-15 20:49     15 30 00.43 -17 20 24.6  0.00544586162872   0.0059026
 2017-Mar-15 21:29     15 30 00.90 -17 20 26.5  0.00544595632432   0.0059026
 2017-Mar-15 22:09     15 30 01.37 -17 20 28.3  0.00544605101931   0.0059026
 2017-Mar-15 22:49     15 30 01.83 -17 20 30.2  0.00544614571371   0.0059025
 2017-Mar-15 23:29     15 30 02.30 -17 20 32.0  0.00544624040750   0.0059025
 2017-Mar-16 00:09     15 30 02.77 -17 20 33.9  0.00544633510068   0.0059024
 2017-Mar-16 00:49     15 30 03.24 -17 20 35.7  0.00544642979327   0.0059024
 2017-Mar-16 01:29     15 30 03.70 -17 20 37.6  0.00544652448525   0.0059024
 2017-Mar-16 02:09     15 30 04.17 -17 20 39.4  0.00544661917663   0.0059023
 2017-Mar-16 02:49     15 30 04.64 -17 20 41.3  0.00544671386740   0.0059023
 2017-Mar-16 03:29     15 30 05.10 -17 20 43.1  0.00544680855757   0.0059023
 2017-Mar-16 04:09     15 30 05.57 -17 20 45.0  0.00544690324713   0.0059022
 2017-Mar-16 04:49     15 30 06.04 -17 20 46.8  0.00544699793609   0.0059022
 2017-Mar-16 05:29     15 30 06.50 -17 20 48.7  0.00544709262445   0.0059021
 2017-Mar-16 06:09     15 30 06.97 -17 20 50.5  0.00544718731220   0.0059021
 2017-Mar-16 06:49     15 30 07.44 -17 20 52.4  0.00544728199934   0.0059021
 2017-Mar-16 07:29     15 30 07.90 -17 20 54.2  0.00544737668587   0.0059020
 2017-Mar-16 08:09     15 30 08.37 -17 20 56.1  0.00544747137180   0.0059020
 2017-Mar-16 08:49     15 30 08.84 -17 20 57.9  0.00544756605712   0.0059019
 2017-Mar-16 09:29     15 30 09.30 -17 20 59.8  0.00544766074184   0.0059019
 2017-Mar-16 10:09     15 30 09.77 -17 21 01.6  0.00544775542594   0.0059019
 2017-Mar-16 10:49     15 30 10.24 -17 21 03.5  0.00544785010944   0.0059018
 2017-Mar-16 11:29     15 30 10.70 -17 21 05.3  0.00544794479233   0.0059018
 2017-Mar-16 12:09     15 30 11.17 -17 21 07.2  0.00544803947461   0.0059018
 2017-Mar-16 12:49     15 30 11.64 -17 21 09.0  0.00544813415628   0.0059017
 2017-Mar-16 13:29     15 30 12.10 -17 21 10.9  0.00544822883734   0.0059017
 2017-Mar-16 14:09     15 30 12.57 -17 21 12.7  0.00544832351780   0.0059016
 2017-Mar-16 14:49     15 30 13.04 -17 21 14.6  0.00544841819764   0.0059016
 2017-Mar-16 15:29     15 30 13.51 -17 21 16.4  0.00544851287687   0.0059016
 2017-Mar-16 16:09     15 30 13.97 -17 21 18.3  0.00544860755548   0.0059015
 2017-Mar-16 16:49     15 30 14.44 -17 21 20.1  0.00544870223349   0.0059015
 2017-Mar-16 17:29     15 30 14.91 -17 21 22.0  0.00544879691089   0.0059015
 2017-Mar-16 18:09     15 30 15.37 -17 21 23.8  0.00544889158767   0.0059014
 2017-Mar-16 18:49     15 30 15.84 -17 21 25.7  0.00544898626384   0.0059014
 2017-Mar-16 19:29     15 30 16.31 -17 21 27.5  0.00544908093940   0.0059013
 2017-Mar-16 20:09     15 30 16.77 -17 21 29.4  0.00544917561434   0.0059013
 2017-Mar-16 20:49     15 30 17.24 -17 21 31.2  0.00544927028867   0.0059013
 2017-Mar-16 21:29     15 30 17.71 -17 21 33.0  0.00544936496238   0.0059012
 2017-Mar-16 22:09     15 30 18.17 -17 21 34.9  0.00544945963548   0.0059012
 2017-Mar-16 22:49     15 30 18.64 -17 21 36.7  0.00544955430797   0.0059011
 2017-Mar-16 23:29     15 30 19.11 -17 21 38.6  0.00544964897984   0.0059011
 2017-Mar-17 00:09     15 30 19.57 -17 21 40.4  0.00544974365109   0.0059011
 2017-Mar-17 00:49     15 30 20.04 -17 21 42.3  0.00544983832173   0.0059010
 2017-Mar-17 01:29     15 30 20.51 -17 21 44.1  0.00544993299175   0.0059010
 2017-Mar-17 02:09     15 30 20.97 -17 21 46.0  0.00545002766115   0.0059010
 2017-Mar-17 02:49     15 30 21.44 -17 21 47.8  0.00545012232993   0.0059009
 2017-Mar-17 03:29     15 30 21.91 -17 21 49.7  0.00545021699810   0.0059009
 2017-Mar-17 04:09     15 30 22.37 -17 21 51.5  0.00545031166565   0.0059008
 2017-Mar-17 04:49     15 30 22.84 -17 21 53.4  0.00545040633258   0.0059008
 2017-Mar-17 05:29     15 30 23.31 -17 21 55.2  0.00545050099889   0.0059008
 2017-Mar-17 06:09     15 30 23.78 -17 21 57.1  0.00545059566458   0.0059007
 2017-Mar-17 06:49     15 30 24.24 -17 21 58.9  0.00545069032965   0.0059007
 2017-Mar-17 07:29     15 30 24.71 -17 22 00.8  0.00545078499410   0.0059006
 2017-Mar-17 08:09     15 30 25.18 -17 22 02.6  0.00545087965793   0.0059006
 2017-Mar-17 08:49     15 30 25.64 -17 22 04.5  0.00545097432114   0.0059006
 2017-Mar-17 09:29     15 30 26.11 -17 22 06.3  0.00545106898372   0.0059005
 2017-Mar-17 10:09     15 30 26.58 -17 22 08.1  0.00545116364569   0.0059005
